1 08820U 76039A   03202.56281587  .00000016  00000-0  10000-3 0  9364
2 08820 109.8034 193.3628 0044523 293.8354  65.7611  6.38664407379255
